OBJECT_NAME,OBJECT_ID,EPOCH,MEAN_MOTION,ECCENTRICITY,INCLINATION,RA_OF_ASC_NODE,ARG_OF_PERICENTER,MEAN_ANOMALY,EPHEMERIS_TYPE,CLASSIFICATION_TYPE,NORAD_CAT_ID,ELEMENT_SET_NO,REV_AT_EPOCH,BSTAR,MEAN_MOTION_DOT,MEAN_MOTION_DDOT
MOHAMMED VI-A,2017-070A,2026-01-17T23:01:17.747616,14.77098562,.00013084,97.9540,92.4502,82.7046,277.4313,0,U,43005,999,44180,.91985715E-4,.599E-5,0
FENGYUN 3D,2017-072A,2026-01-17T23:07:34.640832,14.19697057,.00023865,98.9936,349.8252,103.8840,256.2601,0,U,43010,999,42367,.15010553E-3,.271E-5,0
HEAD-1,2017-072B,2026-01-17T22:52:28.210656,14.28683164,.00092156,98.9632,32.3938,226.6625,133.3788,0,U,43011,999,42590,.68414815E-4,.125E-5,0
NOAA 20 (JPSS-1),2017-073A,2026-01-17T22:30:39.881376,14.19536703,.00013907,98.7639,318.8464,34.9771,325.1496,0,U,43013,999,42315,.57252312E-4,.77E-6,0
MAKERSAT 0,2017-073D,2026-01-17T04:13:50.044224,15.24953644,.01253823,97.4867,259.0579,87.2475,274.3106,0,U,43016,999,44339,.64151111E-3,.19996E-3,0
RADFXSAT (FOX-1B),2017-073E,2026-01-17T13:54:16.493184,15.09659295,.01599716,97.4925,247.9751,127.1081,234.4891,0,U,43017,999,44264,.42556691E-3,.9217E-4,0
JILIN-1 04,2017-074A,2026-01-17T23:02:33.096192,15.37956422,.00047104,97.4797,124.1622,30.1722,329.9793,0,U,43022,999,45114,.35903957E-3,.1333E-3,0
JILIN-1 05,2017-074B,2026-01-17T23:15:44.742240,15.31610511,.00064097,97.4818,122.4458,52.2897,307.8925,0,U,43023,999,45099,.20402694E-3,.6151E-4,0
JILIN-1 06,2017-074C,2026-01-17T22:30:41.437440,15.31546237,.00083574,97.4759,119.5648,59.9800,300.2270,0,U,43024,999,45082,.20102727E-3,.605E-4,0
YAOGAN-30 03A,2017-075A,2026-01-17T15:07:47.398944,15.01783332,.00012063,34.9948,107.7288,72.9772,287.1068,0,U,43028,999,44459,.23460611E-3,.3091E-4,0
YAOGAN-30 03B,2017-075B,2026-01-17T22:37:49.124352,15.01741933,.00031803,34.9943,105.3874,344.1682,15.8926,0,U,43029,999,44475,.19147357E-3,.2514E-4,0
YAOGAN-30 03C,2017-075C,2026-01-17T22:05:52.823328,15.01726230,.00023151,34.9953,105.4645,189.7576,170.3087,0,U,43030,999,44481,.21978919E-3,.2889E-4,0
COSMOS 2524,2017-076A,2026-01-17T22:39:16.264800,13.97405357,.00102691,67.1435,198.1413,263.6132,96.3784,0,U,43032,999,41461,-.60124875E-4,-.16E-5,0
LKW-1,2017-077A,2026-01-17T23:03:17.256096,15.23549554,.00019336,97.1212,60.0475,98.9767,261.1689,0,U,43034,999,45182,.21371812E-3,.5042E-4,0
ALCOMSAT 1,2017-078A,2026-01-17T22:27:17.428896,1.00271477,.00026307,0.0652,221.5840,68.7571,139.0131,0,U,43039,999,2978,0,-.17E-5,0
GSAT0215 (GALILEO 19),2017-079A,2026-01-15T12:06:29.984544,1.70474269,.00011931,55.1211,225.7065,16.0195,344.0584,0,U,43055,999,5038,0,.93E-6,0
GSAT0216 (GALILEO 20),2017-079B,2026-01-16T23:15:15.565824,1.70474383,.00020801,55.1204,225.6661,334.8280,25.2338,0,U,43056,999,5042,0,.96E-6,0
GSAT0217 (GALILEO 21),2017-079C,2026-01-16T14:28:38.201088,1.70474189,.00045302,55.1198,225.6741,58.2953,301.8217,0,U,43057,999,5040,0,.96E-6,0
GSAT0218 (GALILEO 22),2017-079D,2026-01-16T05:40:37.524288,1.70474328,.00021262,55.1193,225.6819,320.3323,39.7257,0,U,43058,999,5042,0,.95E-6,0
GCOM-C (SHIKISAI),2017-082A,2026-01-17T21:59:43.053792,14.27265767,.00010204,98.6448,93.4438,89.5511,270.5787,0,U,43065,999,42050,.78528883E-4,.148E-5,0
IRIDIUM 135,2017-083A,2026-01-17T17:32:07.122336,14.34217952,.00021417,86.3951,24.8899,89.9656,270.1785,0,U,43070,999,42258,.45583845E-4,.147E-5,0
IRIDIUM 138,2017-083B,2026-01-17T18:08:39.155136,14.34216822,.00021915,86.3962,24.5516,100.4967,259.6476,0,U,43071,999,42257,-.44877425E-4,-.106E-5,0
IRIDIUM 116,2017-083C,2026-01-17T22:24:22.095648,14.34215435,.00020899,86.3949,24.7929,79.1390,281.0041,0,U,43072,999,42263,-.29501936E-4,-.63E-6,0
IRIDIUM 130,2017-083D,2026-01-17T23:19:11.215776,14.34216880,.00022584,86.3956,25.0376,82.9467,277.1985,0,U,43073,999,42258,-.180441E-4,-.31E-6,0
IRIDIUM 151,2017-083E,2026-01-17T22:42:39.132864,14.34217538,.00021475,86.3951,24.8418,88.7687,271.3755,0,U,43074,999,42260,.10190912E-4,.48E-6,0
IRIDIUM 134,2017-083F,2026-01-17T23:37:27.140160,14.34217954,.00022986,86.3955,24.8321,86.8309,273.3150,0,U,43075,999,42257,.29944541E-4,.104E-5,0
IRIDIUM 137,2017-083G,2026-01-17T23:55:42.998880,14.34217125,.00018272,86.3957,24.9165,78.7677,281.3724,0,U,43076,999,42264,.18623603E-4,.72E-6,0
IRIDIUM 141,2017-083H,2026-01-17T23:46:35.082048,14.34217891,.00022285,86.3950,24.7581,92.6067,267.5384,0,U,43077,999,42264,.28860282E-4,.101E-5,0
IRIDIUM 153,2017-083J,2026-01-17T20:57:15.452064,14.34218227,.00023828,86.3990,353.3048,92.9809,267.1660,0,U,43078,999,42373,.23584655E-4,.86E-6,0
IRIDIUM 131,2017-083K,2026-01-17T23:28:19.219008,14.34216687,.00020131,86.3954,24.9395,92.4391,267.7036,0,U,43079,999,42257,-.18705716E-4,-.33E-6,0
