MOHAMMED VI-A           
1 43005U 17070A   26017.95923319  .00000599  00000+0  91986-4 0  9993
2 43005  97.9540  92.4502 0001308  82.7046 277.4313 14.77098562441802
FENGYUN 3D              
1 43010U 17072A   26017.96359538  .00000271  00000+0  15011-3 0  9999
2 43010  98.9936 349.8252 0002386 103.8840 256.2601 14.19697057423673
HEAD-1                  
1 43011U 17072B   26017.95310429  .00000125  00000+0  68415-4 0  9990
2 43011  98.9632  32.3938 0009215 226.6625 133.3788 14.28683164425908
NOAA 20 (JPSS-1)        
1 43013U 17073A   26017.93796159  .00000077  00000+0  57252-4 0  9992
2 43013  98.7639 318.8464 0001390  34.9771 325.1496 14.19536703423157
MAKERSAT 0              
1 43016U 17073D   26017.17627366  .00019996  00000+0  64151-3 0  9999
2 43016  97.4867 259.0579 0125382  87.2475 274.3106 15.24953644443397
RADFXSAT (FOX-1B)       
1 43017U 17073E   26017.57935756  .00009217  00000+0  42557-3 0  9990
2 43017  97.4925 247.9751 0159971 127.1081 234.4891 15.09659295442642
JILIN-1 04              
1 43022U 17074A   26017.96010528  .00013330  00000+0  35904-3 0  9990
2 43022  97.4797 124.1622 0004710  30.1722 329.9793 15.37956422451142
JILIN-1 05              
1 43023U 17074B   26017.96926785  .00006151  00000+0  20403-3 0  9993
2 43023  97.4818 122.4458 0006409  52.2897 307.8925 15.31610511450994
JILIN-1 06              
1 43024U 17074C   26017.93797960  .00006050  00000+0  20103-3 0  9997
2 43024  97.4759 119.5648 0008357  59.9800 300.2270 15.31546237450824
YAOGAN-30 03A           
1 43028U 17075A   26017.63040971  .00003091  00000+0  23461-3 0  9994
2 43028  34.9948 107.7288 0001206  72.9772 287.1068 15.01783332444593
YAOGAN-30 03B           
1 43029U 17075B   26017.94292968  .00002514  00000+0  19147-3 0  9999
2 43029  34.9943 105.3874 0003180 344.1682  15.8926 15.01741933444759
YAOGAN-30 03C           
1 43030U 17075C   26017.92075027  .00002889  00000+0  21979-3 0  9995
2 43030  34.9953 105.4645 0002315 189.7576 170.3087 15.01726230444818
COSMOS 2524             
1 43032U 17076A   26017.94393825 -.00000160  00000+0 -60125-4 0  9998
2 43032  67.1435 198.1413 0010269 263.6132  96.3784 13.97405357414615
LKW-1                   
1 43034U 17077A   26017.96061639  .00005042  00000+0  21372-3 0  9990
2 43034  97.1212  60.0475 0001933  98.9767 261.1689 15.23549554451828
ALCOMSAT 1              
1 43039U 17078A   26017.93561839 -.00000170  00000+0  00000+0 0  9999
2 43039   0.0652 221.5840 0002630  68.7571 139.0131  1.00271477 29784
GSAT0215 (GALILEO 19)   
1 43055U 17079A   26015.50451371  .00000093  00000+0  00000+0 0  9991
2 43055  55.1211 225.7065 0001193  16.0195 344.0584  1.70474269 50381
GSAT0216 (GALILEO 20)   
1 43056U 17079B   26016.96893016  .00000096  00000+0  00000+0 0  9992
2 43056  55.1204 225.6661 0002080 334.8280  25.2338  1.70474383 50424
GSAT0217 (GALILEO 21)   
1 43057U 17079C   26016.60321992  .00000096  00000+0  00000+0 0  9993
2 43057  55.1198 225.6741 0004530  58.2953 301.8217  1.70474189 50403
GSAT0218 (GALILEO 22)   
1 43058U 17079D   26016.23654542  .00000095  00000+0  00000+0 0  9992
2 43058  55.1193 225.6819 0002126 320.3323  39.7257  1.70474328 50426
GCOM-C (SHIKISAI)       
1 43065U 17082A   26017.91647053  .00000148  00000+0  78529-4 0  9994
2 43065  98.6448  93.4438 0001020  89.5511 270.5787 14.27265767420506
IRIDIUM 135             
1 43070U 17083A   26017.73063799  .00000147  00000+0  45584-4 0  9994
2 43070  86.3951  24.8899 0002141  89.9656 270.1785 14.34217952422588
IRIDIUM 138             
1 43071U 17083B   26017.75600874 -.00000106  00000+0 -44877-4 0  9999
2 43071  86.3962  24.5516 0002191 100.4967 259.6476 14.34216822422576
IRIDIUM 116             
1 43072U 17083C   26017.93358907 -.00000063  00000+0 -29502-4 0  9997
2 43072  86.3949  24.7929 0002089  79.1390 281.0041 14.34215435422633
IRIDIUM 130             
1 43073U 17083D   26017.97165759 -.00000031  00000+0 -18044-4 0  9997
2 43073  86.3956  25.0376 0002258  82.9467 277.1985 14.34216880422589
IRIDIUM 151             
1 43074U 17083E   26017.94628626  .00000048  00000+0  10191-4 0  9993
2 43074  86.3951  24.8418 0002147  88.7687 271.3755 14.34217538422609
IRIDIUM 134             
1 43075U 17083F   26017.98434190  .00000104  00000+0  29945-4 0  9999
2 43075  86.3955  24.8321 0002298  86.8309 273.3150 14.34217954422573
IRIDIUM 137             
1 43076U 17083G   26017.99702545  .00000072  00000+0  18624-4 0  9999
2 43076  86.3957  24.9165 0001827  78.7677 281.3724 14.34217125422642
IRIDIUM 141             
1 43077U 17083H   26017.99068382  .00000101  00000+0  28860-4 0  9990
2 43077  86.3950  24.7581 0002228  92.6067 267.5384 14.34217891422648
IRIDIUM 153             
1 43078U 17083J   26017.87309551  .00000086  00000+0  23585-4 0  9995
2 43078  86.3990 353.3048 0002382  92.9809 267.1660 14.34218227423738
IRIDIUM 131             
1 43079U 17083K   26017.97800022 -.00000033  00000+0 -18706-4 0  9999
2 43079  86.3954  24.9395 0002013  92.4391 267.7036 14.34216687422579
